[{"OBJECT_NAME":"COSMOS 2528","OBJECT_ID":"2018-082A","EPOCH":"2026-03-09T23:25:00.782400","MEAN_MOTION":13.96701963,"ECCENTRICITY":0.0005856,"INCLINATION":67.1502,"RA_OF_ASC_NODE":318.8926,"ARG_OF_PERICENTER":289.9988,"MEAN_ANOMALY":70.0466,"EPHEMERIS_TYPE":0,"CLASSIFICATION_TYPE":"U","NORAD_CAT_ID":43657,"ELEMENT_SET_NO":999,"REV_AT_EPOCH":37609,"BSTAR":4.2400253e-5,"MEAN_MOTION_DOT":-1.6e-7,"MEAN_MOTION_DDOT":0},{"OBJECT_NAME":"IRS-1A","OBJECT_ID":"1988-021A","EPOCH":"2026-03-09T17:48:35.102880","MEAN_MOTION":13.97157153,"ECCENTRICITY":0.00153021,"INCLINATION":98.8636,"RA_OF_ASC_NODE":127.0444,"ARG_OF_PERICENTER":122.058,"MEAN_ANOMALY":348.5561,"EPHEMERIS_TYPE":0,"CLASSIFICATION_TYPE":"U","NORAD_CAT_ID":18960,"ELEMENT_SET_NO":999,"REV_AT_EPOCH":83928,"BSTAR":0.00017893633,"MEAN_MOTION_DOT":2.08e-6,"MEAN_MOTION_DDOT":0}]
